{
    "links": {
        "self": "http://www.neowsapp.com/rest/v1/neo/3285183?api_key=iIulBulltgU6a56xZRHN4H3l9WmuAYTsLGpBGhQ2"
    },
    "id": "3285183",
    "neo_reference_id": "3285183",
    "name": "(2005 OR2)",
    "designation": "2005 OR2",
    "nasa_jpl_url": "http://ssd.jpl.nasa.gov/sbdb.cgi?sstr=3285183",
    "absolute_magnitude_h": 23.5,
    "estimated_diameter": {
        "kilometers": {
            "estimated_diameter_min": 0.0530340723,
            "estimated_diameter_max": 0.1185877909
        },
        "meters": {
            "estimated_diameter_min": 53.0340723319,
            "estimated_diameter_max": 118.5877908577
        },
        "miles": {
            "estimated_diameter_min": 0.0329538346,
            "estimated_diameter_max": 0.0736870142
        },
        "feet": {
            "estimated_diameter_min": 173.9963058693,
            "estimated_diameter_max": 389.0675677576
        }
    },
    "is_potentially_hazardous_asteroid": false,
    "close_approach_data": [
        {
            "close_approach_date": "2005-07-24",
            "close_approach_date_full": "2005-Jul-24 13:51",
            "epoch_date_close_approach": 1122213060000,
            "relative_velocity": {
                "kilometers_per_second": "12.7802356717",
                "kilometers_per_hour": "46008.848418251",
                "miles_per_hour": "28588.1091741072"
            },
            "miss_distance": {
                "astronomical": "0.0516915076",
                "lunar": "20.1079964564",
                "kilometers": "7732939.434048812",
                "miles": "4805025.7523131256"
            },
            "orbiting_body": "Earth"
        }
    ],
    "orbital_data": {
        "orbit_id": "9",
        "orbit_determination_date": "2017-04-06 09:10:44",
        "first_observation_date": "2005-07-29",
        "last_observation_date": "2005-08-02",
        "data_arc_in_days": 4,
        "observations_used": 33,
        "orbit_uncertainty": "9",
        "minimum_orbit_intersection": ".0215929",
        "jupiter_tisserand_invariant": "3.585",
        "epoch_osculation": "2453582.5",
        "eccentricity": ".5540291092734065",
        "semi_major_axis": "2.045817053963655",
        "inclination": "3.705066557908419",
        "ascending_node_longitude": "277.0235880805473",
        "orbital_period": "1068.805349245685",
        "perihelion_distance": ".9123748538198267",
        "perihelion_argument": "335.2484752730506",
        "aphelion_distance": "3.179259254107484",
        "perihelion_time": "2453539.832921285648",
        "mean_anomaly": "14.37132434639033",
        "mean_motion": ".3368246615289417",
        "equinox": "J2000",
        "orbit_class": {
            "orbit_class_type": "APO",
            "orbit_class_description": "Near-Earth asteroid orbits which cross the Earth’s orbit similar to that of 1862 Apollo",
            "orbit_class_range": "a (semi-major axis) > 1.0 AU; q (perihelion) < 1.017 AU"
        }
    },
    "is_sentry_object": false
}